GLOBALSTAR M035         
1 25851U 99037A   25115.66151035 -.00000045  00000+0  69397-3 0  9996
2 25851  51.9926 172.1039 0014038 255.0542 280.2500 11.04538298 90453
GLOBALSTAR M032         
1 25852U 99037B   25115.89912744 -.00000124  00000+0 -18448-2 0  9993
2 25852  51.9998   0.3767 0012737  79.2865 280.9368 11.19061618128938
GLOBALSTAR M051         
1 25853U 99037C   25115.80964276 -.00000077  00000+0 -12632-3 0  9999
2 25853  51.9771 167.2475 0000876 141.4271 218.6602 11.42204588126401
GLOBALSTAR M030         
1 25854U 99037D   25115.90373286 -.00000030  00000+0  96265-3 0  9998
2 25854  51.9906 336.4517 0003086 327.3125  32.7500 11.55105886144001
GLOBALSTAR M048         
1 25872U 99041A   25115.92129586 -.00000056  00000+0  38847-3 0  9997
2 25872  51.9344  99.9871 0013101  94.0049 303.8326 11.33856500119050
GLOBALSTAR M026         
1 25873U 99041B   25115.97755662  .00000003  00000+0  24720-2 0  9998
2 25873  52.0018 289.9083 0002185 158.0589  14.0176 11.06838018142703
GLOBALSTAR M043         
1 25874U 99041C   25115.72624211 -.00000059  00000+0  28649-3 0  9994
2 25874  51.9390 206.0083 0013745 220.7160 310.2386 11.25692238116967
GLOBALSTAR M028         
1 25875U 99041D   25115.96242079 -.00000055  00000+0  29174-3 0  9999
2 25875  51.9655 348.7911 0062860 318.7446  40.8675 12.50581567183640
